0 COSMOS 397 DEB
1 21723U 71015DW  13281.59908074  .00007262  00000-0  14923-2 0  2357
2 21723 065.6934 104.2305 0485149 263.6126 159.5057 14.06669811109040
0 COSMOS 397 DEB
1 21723U 71015DW  13283.50514918  .00009373  00000-0  18945-2 0  2375
2 21723 065.7017 099.2088 0484640 262.7281 091.8938 14.06689743109313
0 COSMOS 397 DEB
1 21723U 71015DW  13285.88315432  .00006500  00000-0  13351-2 0  2373
2 21723 065.6948 092.9614 0485447 261.5069 254.4924 14.06716569109642
0 COSMOS 397 DEB
1 21723U 71015DW  13290.04577354  .00005654  00000-0  11639-2 0  2387
2 21723 065.7011 082.0092 0485317 259.7090 094.9341 14.06771175110234
0 COSMOS 397 DEB
1 21723U 71015DW  13290.06942367  .00010153  00000-0  20580-2 0  2395
2 21723 065.6959 081.9406 0486316 259.5211 214.9148 14.06780057110232
0 COSMOS 397 DEB
1 21723U 71015DW  13292.83404174  .00010239  00000-0  20856-2 0  2404
2 21723 065.6944 074.6580 0485017 258.2397 176.2128 14.06821928110620
0 COSMOS 397 DEB
1 21723U 71015DW  13295.46186544  .00013498  00000-0  27394-2 0  2419
2 21723 065.6945 067.7388 0484804 256.9706 165.1924 14.06869512110994
